NORAD_CAT_ID,OBJECT_NAME,OBJECT_TYPE,EPOCH,MEAN_MOTION,ECCENTRICITY,INCLINATION,RA_OF_ASC_NODE,ARG_OF_PERICENTER,MEAN_ANOMALY,BSTAR,MEAN_MOTION_DOT,MEAN_MOTION_DDOT,TLE_LINE0,TLE_LINE1,TLE_LINE2,SEMIMAJOR_AXIS,PERIOD,APOGEE,PERIGEE,DECAYED
54801.0,STARLINK-5429,PAYLOAD,2023-02-16 14:33:33,15.08846067,0.000143,53.2179,18.4575,60.623,299.4905,6.7703e-05,7.9e-06,0.0,0 STARLINK-5429,1 54801U 22175AV  23047.60663604  .00000790  00000-0  67703-4 0  9995,2 54801  53.2179  18.4575 0001430  60.6230 299.4905 15.08846067  9127,6917.862,95.437,540.716,538.738,0.0
54801.0,STARLINK-5429,PAYLOAD,2023-02-17 08:02:49,15.08833162,0.0001199,53.2178,15.1872,83.4539,276.659,-6.2659e-05,-1.285e-05,0.0,0 STARLINK-5429,1 54801U 22175AV  23048.33529517 -.00001285  00000-0 -62659-4 0  9997,2 54801  53.2178  15.1872 0001199  83.4539 276.6590 15.08833162  9238,6917.901,95.438,540.596,538.937,0.0
54801.0,STARLINK-5429,PAYLOAD,2023-02-17 14:24:22,15.08822788,0.0001232,53.2172,13.9971,77.921,282.1921,-0.00011515,-2.119e-05,0.0,0 STARLINK-5429,1 54801U 22175AV  23048.60026572 -.00002119  00000-0 -11515-3 0  9991,2 54801  53.2172  13.9971 0001232  77.9210 282.1921 15.08822788  9276,6917.933,95.439,540.65,538.946,0.0
54801.0,STARLINK-5429,PAYLOAD,2023-02-18 06:18:13,15.08839233,0.0001308,53.2188,11.0249,91.8489,268.2653,-5.9179e-05,-1.23e-05,0.0,0 STARLINK-5429,1 54801U 22175AV  23049.26266111 -.00001230  00000-0 -59179-4 0  9991,2 54801  53.2188  11.0249 0001308  91.8489 268.2653 15.08839233  9378,6917.883,95.438,540.653,538.843,0.0
54801.0,STARLINK-5429,PAYLOAD,2023-02-18 14:15:08,15.08852655,0.0001218,53.2192,9.5374,83.7654,276.3477,-1.4179e-05,-5.14e-06,0.0,0 STARLINK-5429,1 54801U 22175AV  23049.59384938 -.00000514  00000-0 -14179-4 0  9990,2 54801  53.2192   9.5374 0001218  83.7654 276.3477 15.08852655 11581,6917.842,95.437,540.549,538.864,0.0
54801.0,STARLINK-5429,PAYLOAD,2023-02-19 14:05:53,15.08860405,2.73e-05,53.2177,5.0757,347.1301,12.9684,0.00028606,4.271e-05,0.0,0 STARLINK-5429,1 54801U 22175AV  23050.58742116  .00004271  00000-0  28606-3 0  9998,2 54801  53.2177   5.0757 0000273 347.1301  12.9684 15.08860405 11739,6917.818,95.436,539.872,539.494,0.0
54801.0,STARLINK-5429,PAYLOAD,2023-02-20 02:49:01,15.08817666,0.0001088,53.2204,2.6985,80.0025,280.109,-4.6927e-05,-1.034e-05,0.0,0 STARLINK-5429,1 54801U 22175AV  23051.11738330 -.00001034  00000-0 -46927-4 0  9994,2 54801  53.2204   2.6985 0001088  80.0025 280.1090 15.08817666  9656,6917.949,95.439,540.566,539.061,0.0
54801.0,STARLINK-5429,PAYLOAD,2023-02-20 05:59:47,15.08837128,0.000113,53.2187,2.1041,87.8943,272.2178,-3.7953e-05,-8.92e-06,0.0,0 STARLINK-5429,1 54801U 22175AV  23051.24985356 -.00000892  00000-0 -37953-4 0  9990,2 54801  53.2187   2.1041 0001130  87.8943 272.2178 15.08837128  9672,6917.889,95.438,540.536,538.972,0.0
54801.0,STARLINK-5429,PAYLOAD,2023-02-20 13:56:43,15.08830678,0.0001206,53.2193,0.6165,78.1714,281.9414,-0.00014697,-2.625e-05,0.0,0 STARLINK-5429,1 54801U 22175AV  23051.58106322 -.00002625  00000-0 -14697-3 0  9990,2 54801  53.2193   0.6165 0001206  78.1714 281.9414 15.08830678  9721,6917.909,95.438,540.608,538.94,0.0
54801.0,STARLINK-5429,PAYLOAD,2023-02-21 02:39:47,15.08816615,7.21e-05,53.2196,358.2379,82.8329,277.2745,0.00011355,1.519e-05,0.0,0 STARLINK-5429,1 54801U 22175AV  23052.11096953  .00001519  00000-0  11355-3 0  9995,2 54801  53.2196 358.2379 0000721  82.8329 277.2745 15.08816615  9807,6917.952,95.439,540.316,539.318,0.0
54801.0,STARLINK-5429,PAYLOAD,2023-02-21 05:50:33,15.08830817,0.0001287,53.2203,357.6431,85.8775,274.2364,0.00017812,2.547e-05,0.0,0 STARLINK-5429,1 54801U 22175AV  23052.24344297  .00002547  00000-0  17812-3 0  9992,2 54801  53.2203 357.6431 0001287  85.8775 274.2364 15.08830817  9820,6917.908,95.438,540.664,538.883,0.0
54801.0,STARLINK-5429,PAYLOAD,2023-02-21 13:47:29,15.08823906,9.9e-05,53.2189,356.1561,90.3341,269.7765,0.00015298,2.147e-05,0.0,0 STARLINK-5429,1 54801U 22175AV  23052.57464913  .00002147  00000-0  15298-3 0  9998,2 54801  53.2189 356.1561 0000990  90.3341 269.7765 15.08823906 12033,6917.93,95.439,540.479,539.11,0.0
54801.0,STARLINK-5429,PAYLOAD,2023-02-22 02:30:34,15.08839591,0.0001114,53.2204,353.7766,94.05,266.0619,0.00020997,3.055e-05,0.0,0 STARLINK-5429,1 54801U 22175AV  23053.10456125  .00003055  00000-0  20997-3 0  9995,2 54801  53.2204 353.7766 0001114  94.0500 266.0619 15.08839591  9950,6917.882,95.438,540.517,538.976,0.0
54801.0,STARLINK-5429,PAYLOAD,2023-02-22 05:41:19,15.0884919,0.0001055,53.2179,353.1809,104.3235,255.7874,0.000185,2.658e-05,0.0,0 STARLINK-5429,1 54801U 22175AV  23053.23703491  .00002658  00000-0  18500-3 0  9995,2 54801  53.2179 353.1809 0001055 104.3235 255.7874 15.08849190  9973,6917.852,95.437,540.447,538.987,0.0
54801.0,STARLINK-5429,PAYLOAD,2023-02-23 02:21:23,15.08821336,0.0001144,53.2188,349.3178,81.9635,278.1487,-2.954e-05,-7.58e-06,0.0,0 STARLINK-5429,1 54801U 22175AV  23054.09818743 -.00000758  00000-0 -29540-4 0  9995,2 54801  53.2188 349.3178 0001144  81.9635 278.1487 15.08821336 10100,6917.937,95.439,540.594,539.011,0.0
54801.0,STARLINK-5429,PAYLOAD,2023-02-23 19:50:36,15.08843664,0.0001177,53.218,346.046,80.5926,279.5199,-2.5568e-06,-3.29e-06,0.0,0 STARLINK-5429,1 54801U 22175AV  23054.82681409 -.00000329  00000-0 -25568-5 0  9994,2 54801  53.2180 346.0460 0001177  80.5926 279.5199 15.08843664 10219,6917.869,95.437,540.548,538.92,0.0
54801.0,STARLINK-5429,PAYLOAD,2023-02-24 02:12:08,15.08857797,0.0001212,53.2189,344.8588,81.1397,278.9732,0.00013423,1.85e-05,0.0,0 STARLINK-5429,1 54801U 22175AV  23055.09175951  .00001850  00000-0  13423-3 0  9997,2 54801  53.2189 344.8588 0001212  81.1397 278.9732 15.08857797 10256,6917.826,95.436,540.529,538.853,0.0
54801.0,STARLINK-5429,PAYLOAD,2023-02-24 05:22:53,15.08866695,0.0001209,53.2176,344.2617,83.1118,277.0012,9.9586e-05,1.298e-05,0.0,0 STARLINK-5429,1 54801U 22175AV  23055.22423338  .00001298  00000-0  99586-4 0  9998,2 54801  53.2176 344.2617 0001209  83.1118 277.0012 15.08866695 10278,6917.799,95.436,540.5,538.827,0.0
54801.0,STARLINK-5429,PAYLOAD,2023-02-24 19:41:24,15.08828087,0.0002025,53.218,341.5847,85.8108,274.3116,7.0217e-05,8.29e-06,0.0,0 STARLINK-5429,1 54801U 22175AV  23055.82042139  .00000829  00000-0  70217-4 0  9999,2 54801  53.2180 341.5847 0002025  85.8108 274.3116 15.08828087 10361,6917.917,95.438,541.183,538.381,0.0
54801.0,STARLINK-5429,PAYLOAD,2023-02-25 02:02:57,15.08824879,0.000138,53.2182,340.3978,68.7996,291.3144,1.1209e-05,-1.1e-06,0.0,0 STARLINK-5429,1 54801U 22175AV  23056.08538760 -.00000110  00000-0  11209-4 0  9998,2 54801  53.2182 340.3978 0001380  68.7996 291.3144 15.08824879 10403,6917.927,95.439,540.746,538.837,0.0
54801.0,STARLINK-5429,PAYLOAD,2023-02-25 03:38:20,15.08827604,0.0001455,53.2184,340.1002,73.6622,286.453,3.4226e-05,2.57e-06,0.0,0 STARLINK-5429,1 54801U 22175AV  23056.15162588  .00000257  00000-0  34226-4 0  9992,2 54801  53.2184 340.1002 0001455  73.6622 286.4530 15.08827604 12578,6917.918,95.438,540.79,538.777,0.0
54801.0,STARLINK-5429,PAYLOAD,2023-02-26 01:53:42,15.08862622,0.0001337,53.2179,335.9348,82.1328,277.9816,4.2865e-05,3.95e-06,0.0,0 STARLINK-5429,1 54801U 22175AV  23057.07896423  .00000395  00000-0  42865-4 0  9997,2 54801  53.2179 335.9348 0001337  82.1328 277.9816 15.08862622 10551,6917.811,95.436,540.601,538.751,0.0
54801.0,STARLINK-5429,PAYLOAD,2023-02-26 03:29:05,15.08864102,0.0001393,53.2183,335.6378,75.1809,284.9337,5.8558e-05,6.45e-06,0.0,0 STARLINK-5429,1 54801U 22175AV  23057.14520281  .00000645  00000-0  58558-4 0  9995,2 54801  53.2183 335.6378 0001393  75.1809 284.9337 15.08864102 12726,6917.807,95.436,540.635,538.708,0.0
54801.0,STARLINK-5429,PAYLOAD,2023-02-27 00:09:06,15.08841251,0.0001587,53.2187,331.7742,73.5851,286.5315,0.00015571,2.191e-05,0.0,0 STARLINK-5429,1 54801U 22175AV  23058.00633023  .00002191  00000-0  15571-3 0  9995,2 54801  53.2187 331.7742 0001587  73.5851 286.5315 15.08841251 10694,6917.877,95.437,540.839,538.644,0.0
54801.0,STARLINK-5429,PAYLOAD,2023-02-27 03:19:51,15.08861554,0.0001389,53.2183,331.1788,79.4347,280.6802,0.00031607,4.749e-05,0.0,0 STARLINK-5429,1 54801U 22175AV  23058.13879218  .00004749  00000-0  31607-3 0  9996,2 54801  53.2183 331.1788 0001389  79.4347 280.6802 15.08861554 10716,6917.815,95.436,540.64,538.719,0.0
54801.0,STARLINK-5429,PAYLOAD,2023-02-27 20:49:04,15.08877941,0.0001453,53.2184,327.9107,84.3069,275.8089,0.00012713,1.738e-05,0.0,0 STARLINK-5429,1 54801U 22175AV  23058.86741794  .00001738  00000-0  12713-3 0  9995,2 54801  53.2184 327.9107 0001453  84.3069 275.8089 15.08877941 12984,6917.764,95.435,540.635,538.624,0.0
54801.0,STARLINK-5429,PAYLOAD,2023-02-28 03:10:34,15.08901235,0.0001717,53.2187,326.7164,85.859,274.2598,0.00028691,4.289e-05,0.0,0 STARLINK-5429,1 54801U 22175AV  23059.13234905  .00004289  00000-0  28691-3 0  9993,2 54801  53.2187 326.7164 0001717  85.8590 274.2598 15.08901235 10862,6917.693,95.434,540.746,538.37,0.0
54801.0,STARLINK-5429,PAYLOAD,2023-02-28 22:15:16,15.0884424,9.46e-05,53.2182,323.1523,90.0221,270.0879,-0.00027987,-4.74e-05,0.0,0 STARLINK-5429,1 54801U 22175AV  23059.92727361 -.00004740  00000-0 -27987-3 0  9994,2 54801  53.2182 323.1523 0000946  90.0221 270.0879 15.08844240 13141,6917.867,95.437,540.387,539.078,0.0
54801.0,STARLINK-5429,PAYLOAD,2023-03-01 03:01:28,15.08809458,0.0001165,53.2183,322.2583,95.2765,264.836,-0.0005517,-9.05e-05,0.0,0 STARLINK-5429,1 54801U 22175AV  23060.12602282 -.00009050  00000-0 -55170-3 0  9996,2 54801  53.2183 322.2583 0001165  95.2765 264.8360 15.08809458 11014,6917.974,95.439,540.645,539.033,0.0
54801.0,STARLINK-5429,PAYLOAD,2023-03-01 07:47:37,15.08814395,0.0001202,53.2187,321.3661,99.3304,260.7824,-0.00049099,-8.088e-05,0.0,0 STARLINK-5429,1 54801U 22175AV  23060.32474020 -.00008088  00000-0 -49099-3 0  9998,2 54801  53.2187 321.3661 0001202  99.3304 260.7824 15.08814395 11040,6917.959,95.439,540.655,538.992,0.0
